NORAD_CAT_ID,OBJECT_NAME,OBJECT_TYPE,EPOCH,MEAN_MOTION,ECCENTRICITY,INCLINATION,RA_OF_ASC_NODE,ARG_OF_PERICENTER,MEAN_ANOMALY,BSTAR,MEAN_MOTION_DOT,MEAN_MOTION_DDOT,TLE_LINE0,TLE_LINE1,TLE_LINE2,SEMIMAJOR_AXIS,PERIOD,APOGEE,PERIGEE,DECAYED
53637.0,STARLINK-4396,PAYLOAD,2024-04-13 07:24:17,15.08837743,0.000145,53.2168,105.9888,81.9222,278.1935,0.00012821,1.753e-05,0.0,0 STARLINK-4396,1 53637U 22104BB  24104.30853212  .00001753  00000-0  12821-3 0  9991,2 53637  53.2168 105.9888 0001450  81.9222 278.1935 15.08837743 91241,6917.887,95.438,540.755,538.749,0.0
53637.0,STARLINK-4396,PAYLOAD,2024-04-14 08:50:27,15.08839637,0.000157,53.2174,101.2302,89.1241,270.9931,5.1142e-05,5.26e-06,0.0,0 STARLINK-4396,1 53637U 22104BB  24105.36837584  .00000526  00000-0  51142-4 0  9999,2 53637  53.2174 101.2302 0001570  89.1241 270.9931 15.08839637 90386,6917.881,95.438,540.833,538.66,0.0
53637.0,STARLINK-4396,PAYLOAD,2024-04-15 03:55:03,15.08856612,0.0001413,53.2181,97.6596,47.8358,312.2754,0.00016862,2.398e-05,0.0,0 STARLINK-4396,1 53637U 22104BB  24106.16323189  .00002398  00000-0  16862-3 0  9997,2 53637  53.2181  97.6596 0001413  47.8358 312.2754 15.08856612 90502,6917.83,95.437,540.672,538.717,0.0
53637.0,STARLINK-4396,PAYLOAD,2024-04-15 08:41:13,15.08844336,0.0001343,53.2175,96.7697,85.0794,275.0352,3.8221e-05,3.2e-06,0.0,0 STARLINK-4396,1 53637U 22104BB  24106.36195983  .00000320  00000-0  38221-4 0  9995,2 53637  53.2175  96.7697 0001343  85.0794 275.0352 15.08844336 90530,6917.867,95.437,540.661,538.803,0.0
53637.0,STARLINK-4396,PAYLOAD,2024-04-16 05:21:16,15.08825635,0.0001395,53.2179,92.903,92.3768,267.7383,-0.0001082,-2.009e-05,0.0,0 STARLINK-4396,1 53637U 22104BB  24107.22310389 -.00002009  00000-0 -10820-3 0  9992,2 53637  53.2179  92.9030 0001395  92.3768 267.7383 15.08825635 90669,6917.924,95.438,540.754,538.824,0.0
53637.0,STARLINK-4396,PAYLOAD,2024-04-16 08:32:02,15.0882551,0.0001353,53.2173,92.3074,91.0172,269.0975,-7.6679e-05,-1.508e-05,0.0,0 STARLINK-4396,1 53637U 22104BB  24107.35558212 -.00001508  00000-0 -76679-4 0  9993,2 53637  53.2173  92.3074 0001353  91.0172 269.0975 15.08825510 91704,6917.925,95.438,540.726,538.854,0.0
53637.0,STARLINK-4396,PAYLOAD,2024-04-16 16:28:57,15.08837946,0.0001405,53.2183,90.8239,88.7712,271.3441,-9.0508e-07,-3.02e-06,0.0,0 STARLINK-4396,1 53637U 22104BB  24107.68677593 -.00000302  00000-0 -90508-6 0  9993,2 53637  53.2183  90.8239 0001405  88.7712 271.3441 15.08837946 90734,6917.887,95.438,540.724,538.78,0.0
53637.0,STARLINK-4396,PAYLOAD,2024-04-17 05:12:01,15.08850143,0.000116,53.2163,88.4444,90.4971,269.6154,0.0004587,7.022e-05,0.0,0 STARLINK-4396,1 53637U 22104BB  24108.21668521  .00007022  00000-0  45870-3 0  9997,2 53637  53.2163  88.4444 0001160  90.4971 269.6154 15.08850143 90812,6917.849,95.437,540.517,538.912,0.0
53637.0,STARLINK-4396,PAYLOAD,2024-04-17 08:22:48,15.08856081,0.0001142,53.2159,87.8494,90.7321,269.3802,0.00074949,0.00011666,0.0,0 STARLINK-4396,1 53637U 22104BB  24108.34916682  .00011666  00000-0  74949-3 0  9993,2 53637  53.2159  87.8494 0001142  90.7321 269.3802 15.08856081 91856,6917.831,95.437,540.486,538.906,0.0
53637.0,STARLINK-4396,PAYLOAD,2024-04-18 03:27:26,15.08838326,0.0001294,53.2159,84.2822,98.328,261.7859,0.00032852,4.944e-05,0.0,0 STARLINK-4396,1 53637U 22104BB  24109.14405886  .00004944  00000-0  32852-3 0  9999,2 53637  53.2159  84.2822 0001294  98.3280 261.7859 15.08838326 90958,6917.886,95.438,540.646,538.855,0.0
53637.0,STARLINK-4396,PAYLOAD,2024-04-18 08:13:36,15.08835095,0.0001178,53.2159,83.3906,72.0014,288.1106,0.0012006,0.00018869,0.0,0 STARLINK-4396,1 53637U 22104BB  24109.34278311  .00018869  00000-0  12006-2 0  9991,2 53637  53.2159  83.3906 0001178  72.0014 288.1106 15.08835095 92002,6917.895,95.438,540.575,538.945,0.0
53637.0,STARLINK-4396,PAYLOAD,2024-04-19 04:53:37,15.0884282,0.0001527,53.2169,79.5231,102.1098,258.0065,0.00069882,0.00010852,0.0,0 STARLINK-4396,1 53637U 22104BB  24110.20390655  .00010852  00000-0  69882-3 0  9993,2 53637  53.2169  79.5231 0001527 102.1098 258.0065 15.08842820 91111,6917.872,95.437,540.793,538.68,0.0
53637.0,STARLINK-4396,PAYLOAD,2024-04-19 22:22:51,15.08860728,0.0001627,53.2175,76.2517,105.8887,254.2285,0.00076699,0.00011947,0.0,0 STARLINK-4396,1 53637U 22104BB  24110.93254066  .00011947  00000-0  76699-3 0  9998,2 53637  53.2175  76.2517 0001627 105.8887 254.2285 15.08860728 92240,6917.817,95.436,540.808,538.557,0.0
53637.0,STARLINK-4396,PAYLOAD,2024-04-20 06:19:46,15.08883786,0.0001748,53.2176,74.7659,111.3409,248.777,0.0013916,0.00021955,0.0,0 STARLINK-4396,1 53637U 22104BB  24111.26373202  .00021955  00000-0  13916-2 0  9991,2 53637  53.2176  74.7659 0001748 111.3409 248.7770 15.08883786 91275,6917.747,95.435,540.821,538.402,0.0
53637.0,STARLINK-4396,PAYLOAD,2024-04-21 04:35:11,15.08832169,0.00017,53.2172,70.6043,101.233,258.8853,-0.00012031,-2.202e-05,0.0,0 STARLINK-4396,1 53637U 22104BB  24112.19110178 -.00002202  00000-0 -12031-3 0  9999,2 53637  53.2172  70.6043 0001700 101.2330 258.8853 15.08832169 91411,6917.904,95.438,540.945,538.593,0.0
53637.0,STARLINK-4396,PAYLOAD,2024-04-21 06:10:34,15.0882894,0.0001764,53.2176,70.3067,87.0556,273.0638,-8.2928e-05,-1.607e-05,0.0,0 STARLINK-4396,1 53637U 22104BB  24112.25734422 -.00001607  00000-0 -82928-4 0  9991,2 53637  53.2176  70.3067 0001764  87.0556 273.0638 15.08828940 92445,6917.914,95.438,541.0,538.559,0.0
53637.0,STARLINK-4396,PAYLOAD,2024-04-22 04:25:58,15.08858513,0.0002741,53.2176,66.1459,58.9364,301.1897,0.0013432,0.00021165,0.0,0 STARLINK-4396,1 53637U 22104BB  24113.18470826  .00021165  00000-0  13432-2 0  9990,2 53637  53.2176  66.1459 0002741  58.9364 301.1897 15.08858513 91564,6917.824,95.436,541.585,537.793,0.0
53637.0,STARLINK-4396,PAYLOAD,2024-04-22 06:01:21,15.08876367,0.0002034,53.2173,65.8444,85.2434,274.8791,0.0019392,0.0003074,0.0,0 STARLINK-4396,1 53637U 22104BB  24113.25094155  .00030740  00000-0  19392-2 0  9995,2 53637  53.2173  65.8444 0002034  85.2434 274.8791 15.08876367 91574,6917.769,95.435,541.041,538.227,0.0
53637.0,STARLINK-4396,PAYLOAD,2024-04-23 04:16:46,15.08840082,0.000205,53.2176,61.6881,66.9636,293.1572,0.00144,0.00022704,0.0,0 STARLINK-4396,1 53637U 22104BB  24114.17831359  .00022704  00000-0  14400-2 0  9998,2 53637  53.2176  61.6881 0002050  66.9636 293.1572 15.08840082 91716,6917.88,95.438,541.163,538.327,0.0
53637.0,STARLINK-4396,PAYLOAD,2024-04-23 05:52:09,15.08846743,0.0002103,53.2185,61.3859,65.4429,294.6782,0.0016571,0.00026188,0.0,0 STARLINK-4396,1 53637U 22104BB  24114.24455284  .00026188  00000-0  16571-2 0  9996,2 53637  53.2185  61.3859 0002103  65.4429 294.6782 15.08846743 92744,6917.86,95.437,541.18,538.27,0.0
53637.0,STARLINK-4396,PAYLOAD,2024-04-24 02:32:10,15.08842921,0.0002,53.2188,57.5127,79.9492,280.1726,0.0015338,0.00024209,0.0,0 STARLINK-4396,1 53637U 22104BB  24115.10567331  .00024209  00000-0  15338-2 0  9991,2 53637  53.2188  57.5127 0002000  79.9492 280.1726 15.08842921 91851,6917.871,95.437,541.12,538.353,0.0
53637.0,STARLINK-4396,PAYLOAD,2024-04-25 02:22:56,15.08847964,0.0001679,53.2186,53.0535,94.3544,265.764,0.00024231,3.571e-05,0.0,0 STARLINK-4396,1 53637U 22104BB  24116.09926871  .00003571  00000-0  24231-3 0  9990,2 53637  53.2186  53.0535 0001679  94.3544 265.7640 15.08847964 92007,6917.856,95.437,540.883,538.56,0.0
53637.0,STARLINK-4396,PAYLOAD,2024-04-26 05:24:30,15.08846374,0.0001685,53.2186,47.9987,95.6469,264.4715,-1.09e-05,-4.62e-06,0.0,0 STARLINK-4396,1 53637U 22104BB  24117.22534742 -.00000462  00000-0 -10900-4 0  9995,2 53637  53.2186  47.9987 0001685  95.6469 264.4715 15.08846374 92178,6917.861,95.437,540.892,538.56,0.0
53637.0,STARLINK-4396,PAYLOAD,2024-04-27 11:36:49,15.0884192,0.0001433,53.2182,42.3513,93.0604,267.0552,0.00015341,2.155e-05,0.0,0 STARLINK-4396,1 53637U 22104BB  24118.48391112  .00002155  00000-0  15341-3 0  9998,2 53637  53.2182  42.3513 0001433  93.0604 267.0552 15.08841920 92363,6917.875,95.437,540.731,538.748,0.0
53637.0,STARLINK-4396,PAYLOAD,2024-04-28 11:27:37,15.08840482,0.0001191,53.2174,37.8936,88.8141,271.2988,2.4442e-05,1.01e-06,0.0,0 STARLINK-4396,1 53637U 22104BB  24119.47751302  .00000101  00000-0  24442-4 0  9991,2 53637  53.2174  37.8936 0001191  88.8141 271.2988 15.08840482 92510,6917.879,95.438,540.568,538.92,0.0
53637.0,STARLINK-4396,PAYLOAD,2024-04-28 22:35:19,15.0883295,0.0001425,53.2195,35.8163,99.0969,261.0184,-0.00018491,-3.229e-05,0.0,0 STARLINK-4396,1 53637U 22104BB  24119.94120051 -.00003229  00000-0 -18491-3 0  9996,2 53637  53.2195  35.8163 0001425  99.0969 261.0184 15.08832950 93602,6917.902,95.438,540.753,538.781,0.0
53637.0,STARLINK-4396,PAYLOAD,2024-04-29 11:18:24,15.08842334,0.000152,53.2203,33.4372,92.6443,267.4723,-3.2054e-05,-7.98e-06,0.0,0 STARLINK-4396,1 53637U 22104BB  24120.47112021 -.00000798  00000-0 -32054-4 0  9994,2 53637  53.2203  33.4372 0001520  92.6443 267.4723 15.08842334 92661,6917.873,95.437,540.79,538.687,0.0
53637.0,STARLINK-4396,PAYLOAD,2024-04-29 22:26:06,15.08838615,0.0001499,53.2205,31.3559,101.7329,258.3831,0.00016913,2.405e-05,0.0,0 STARLINK-4396,1 53637U 22104BB  24120.93479910  .00002405  00000-0  16913-3 0  9998,2 53637  53.2205  31.3559 0001499 101.7329 258.3831 15.08838615 93754,6917.885,95.438,540.787,538.713,0.0
53637.0,STARLINK-4396,PAYLOAD,2024-04-30 11:09:11,15.08843848,0.0001261,53.2184,28.9734,91.5086,268.6051,3.0369e-05,1.96e-06,0.0,0 STARLINK-4396,1 53637U 22104BB  24121.46471846  .00000196  00000-0  30369-4 0  9994,2 53637  53.2184  28.9734 0001261  91.5086 268.6051 15.08843848 93831,6917.869,95.437,540.606,538.861,0.0
53637.0,STARLINK-4396,PAYLOAD,2024-04-30 22:16:54,15.08833604,0.000131,53.2188,26.8941,88.5726,271.5416,0.00011376,1.523e-05,0.0,0 STARLINK-4396,1 53637U 22104BB  24121.92840472  .00001523  00000-0  11376-3 0  9991,2 53637  53.2188  26.8941 0001310  88.5726 271.5416 15.08833604 93909,6917.9,95.438,540.671,538.859,0.0
